"{\n    \"CCSDS_OMM_VERS\": \"2.0\",\n    \"COMMENT\": \"GENERATED VIA SPACE-TRACK.ORG API\",\n    \"CREATION_DATE\": \"2025-08-31T17:37:22\",\n    \"ORIGINATOR\": \"18 SPCS\",\n    \"OBJECT_NAME\": \"CYGFM03\",\n    \"OBJECT_ID\": \"2016-078H\",\n    \"CENTER_NAME\": \"EARTH\",\n    \"REF_FRAME\": \"TEME\",\n    \"TIME_SYSTEM\": \"UTC\",\n    \"MEAN_ELEMENT_THEORY\": \"SGP4\",\n    \"EPOCH\": \"2025-08-31T13:41:00.961728\",\n    \"MEAN_MOTION\": \"15.444430283\",\n    \"ECCENTRICITY\": \"0.00075963214\",\n    \"INCLINATION\": \"34.944761\",\n    \"RA_OF_ASC_NODE\": \"336.8459\",\n    \"ARG_OF_PERICENTER\": \"314.6033\",\n    \"MEAN_ANOMALY\": \"45.40672\",\n    \"EPHEMERIS_TYPE\": \"0\",\n    \"CLASSIFICATION_TYPE\": \"U\",\n    \"NORAD_CAT_ID\": \"41891\",\n    \"ELEMENT_SET_NO\": \"999\",\n    \"REV_AT_EPOCH\": \"48394\",\n    \"BSTAR\": \"0.00048163924\",\n    \"MEAN_MOTION_DOT\": \"0.00022993499\",\n    \"MEAN_MOTION_DDOT\": \"0\",\n    \"TLE_LINE0\": \"0 CYGFM03\",\n    \"TLE_LINE1\": \"1 41891U 16078H   25243.57015002  .00022993  00000-0  48164-3 0  9992\",\n    \"TLE_LINE2\": \"2 41891  34.9448 336.8459 0007596 314.6033  45.4067 15.44443028483941\",\n    \"SEMIMAJOR_AXIS\": \"6811.152\",\n    \"PERIOD\": \"93.237\",\n    \"APOAPSIS\": \"438.191\",\n    \"PERIAPSIS\": \"427.843\",\n    \"OBJECT_TYPE\": \"PAYLOAD\",\n    \"DECAYED\": \"0\"\n}"